OBJECT_NAME,OBJECT_ID,EPOCH,MEAN_MOTION,ECCENTRICITY,INCLINATION,RA_OF_ASC_NODE,ARG_OF_PERICENTER,MEAN_ANOMALY,EPHEMERIS_TYPE,CLASSIFICATION_TYPE,NORAD_CAT_ID,ELEMENT_SET_NO,REV_AT_EPOCH,BSTAR,MEAN_MOTION_DOT,MEAN_MOTION_DDOT
STARLINK-31911,2024-150E,2026-07-20T20:30:49.859136,15.34389970,.00012574,53.1608,46.0747,99.9179,260.1965,0,U,60587,999,10838,-.424013E-6,-.391E-5,0
STARLINK-31994,2024-150F,2026-07-20T22:46:54.887232,15.34395224,.00012303,53.1603,45.2407,93.7848,266.3295,0,U,60588,999,10840,.46326481E-4,.1189E-4,0
STARLINK-32169,2024-150G,2026-07-20T20:23:00.472992,15.30197132,.00012836,53.1605,48.8724,91.2217,268.8931,0,U,60589,999,10842,.26197291E-4,.417E-5,0
STARLINK-32209,2024-150H,2026-07-20T18:23:42.456768,15.34381192,.00015227,53.1603,46.2315,89.7752,270.3425,0,U,60590,999,10845,.7777589E-4,.2251E-4,0
STARLINK-32170,2024-150J,2026-07-20T20:15:24.322464,15.30191374,.00012796,53.1602,48.8399,94.3289,265.7858,0,U,60591,999,10834,-.6797177E-5,-.56E-5,0
STARLINK-31497,2024-150K,2026-07-20T20:18:42.698592,15.34393114,.00012307,53.1610,46.0176,77.7614,282.3526,0,U,60592,999,10846,.13452983E-4,.78E-6,0
STARLINK-32161,2024-150L,2026-07-20T20:15:40.703040,15.34395460,.00011889,53.1602,46.0058,86.8108,273.3031,0,U,60593,999,10838,.28579984E-4,.589E-5,0
STARLINK-32210,2024-150M,2026-07-20T19:18:14.863680,15.34391444,.00009808,53.1600,46.4626,99.3863,260.7251,0,U,60594,999,10845,.20306362E-4,.31E-5,0
STARLINK-32202,2024-150N,2026-07-20T18:53:27.684672,15.31707097,.00012554,53.1597,48.4884,80.7789,279.3354,0,U,60595,999,10842,.50460359E-4,.1201E-4,0
STARLINK-31930,2024-150P,2026-07-20T19:09:09.239040,15.34396576,.00012497,53.1613,46.4264,87.6350,272.4796,0,U,60596,999,10837,.35043284E-4,.808E-5,0
STARLINK-32162,2024-150Q,2026-07-20T20:19:57.954720,15.30200124,.00013535,53.1611,48.8590,86.7096,273.4059,0,U,60597,999,10842,.66499916E-4,.1611E-4,0
STARLINK-32208,2024-150R,2026-07-20T20:24:31.779648,15.30188566,.00013508,53.1603,48.8785,85.6701,274.4454,0,U,60598,999,10842,-.24528487E-4,-.1085E-4,0
STARLINK-32165,2024-150S,2026-07-20T20:10:51.270816,15.30195761,.000142,53.1609,48.8196,90.2178,269.8985,0,U,60599,999,10842,.46186089E-4,.1009E-4,0
STARLINK-31923,2024-150T,2026-07-20T21:29:42.163296,15.30198563,.00013181,53.1606,48.4482,96.9047,263.2104,0,U,60600,999,10843,.21861676E-4,.288E-5,0
STARLINK-31988,2024-150U,2026-07-20T20:39:54.887616,15.34402882,.00011227,53.1596,46.1095,76.1289,283.9838,0,U,60601,999,10838,.40538697E-4,.994E-5,0
STARLINK-31983,2024-150V,2026-07-20T21:40:23.310912,15.34389871,.00013917,53.1611,45.6579,99.1013,261.0147,0,U,60602,999,10839,-.3917305E-5,-.509E-5,0
STARLINK-31874,2024-150W,2026-07-20T20:27:47.971584,15.34402064,.00010928,53.1588,46.0563,82.2709,277.8418,0,U,60603,999,10846,.17776937E-3,.5635E-4,0
STARLINK-32039,2024-150X,2026-07-20T20:57:12.150720,15.30199197,.00013329,53.1601,51.1528,96.0577,264.0576,0,U,60604,999,10839,.10495776E-3,.275E-4,0
ZHONGXING-4A,2024-151A,2026-07-20T23:09:41.294592,1.00272860,.00000384,1.2285,270.4247,2.2038,131.7456,0,U,60606,999,709,0,-.361E-5,0
STARLINK-11247 [DTC],2024-152A,2026-07-20T23:13:51.793248,15.69700280,.00014776,53.1595,179.5620,91.8732,268.2455,0,U,60720,999,10976,.8868684E-5,.485E-5,0
STARLINK-11259 [DTC],2024-152B,2026-07-20T07:49:57.203328,15.69711912,.00011769,53.1599,182.6648,90.2166,269.8987,0,U,60721,999,10966,.12814474E-4,.964E-5,0
STARLINK-11188 [DTC],2024-152C,2026-07-20T22:59:43.229472,15.69713662,.00011709,53.1586,179.4927,96.5911,263.5240,0,U,60722,999,10988,.9953542E-5,.617E-5,0
STARLINK-11272 [DTC],2024-152D,2026-07-20T09:00:26.432352,15.69710016,.00010232,53.1594,182.2532,76.4151,283.6981,0,U,60723,999,10967,.18398119E-4,.1641E-4,0
STARLINK-11261 [DTC],2024-152E,2026-07-20T06:04:08.592672,15.69708827,.00011494,53.1590,182.9154,84.8894,275.2255,0,U,60724,999,10965,.569142E-5,.101E-5,0
STARLINK-11263 [DTC],2024-152F,2026-07-20T08:53:24.252576,15.69700259,.00015441,53.1590,182.2181,99.4055,260.7138,0,U,60725,999,10967,.19881385E-4,.1819E-4,0
STARLINK-11235 [DTC],2024-152G,2026-07-20T08:46:18.821568,15.69713922,.00012719,53.1599,182.1861,88.8641,271.2522,0,U,60726,999,10980,.7535582E-5,.324E-5,0
STARLINK-11080 [DTC],2024-152H,2026-07-20T22:24:24.235776,15.69711174,.00010404,53.1596,179.3307,83.2083,276.9054,0,U,60727,999,10989,.7530478E-5,.324E-5,0
STARLINK-11249 [DTC],2024-152J,2026-07-20T20:45:39.614976,15.69706732,.00010462,53.1592,179.6098,94.5301,265.5836,0,U,60728,999,10975,.5359172E-5,.61E-6,0
STARLINK-11146 [DTC],2024-152K,2026-07-20T16:03:32.565888,15.69701523,.00009681,53.1597,180.5085,94.8370,265.2759,0,U,60729,999,10985,.14586925E-4,.1178E-4,0
STARLINK-11255 [DTC],2024-152L,2026-07-20T08:18:03.709728,15.69708844,.0001136,53.1600,182.0584,72.2133,287.9009,0,U,60730,999,10968,.6863741E-5,.243E-5,0
