STARLINK-31911          
1 60587U 24150E   26201.85474374 -.00000391  00000+0 -42401-6 0  9992
2 60587  53.1608  46.0747 0001257  99.9179 260.1965 15.34389970108386
STARLINK-31994          
1 60588U 24150F   26201.94924638  .00001189  00000+0  46326-4 0  9998
2 60588  53.1603  45.2407 0001230  93.7848 266.3295 15.34395224108408
STARLINK-32169          
1 60589U 24150G   26201.84931103  .00000417  00000+0  26197-4 0  9990
2 60589  53.1605  48.8724 0001283  91.2217 268.8931 15.30197132108423
STARLINK-32209          
1 60590U 24150H   26201.76646362  .00002251  00000+0  77776-4 0  9990
2 60590  53.1603  46.2315 0001522  89.7752 270.3425 15.34381192108457
STARLINK-32170          
1 60591U 24150J   26201.84403151 -.00000560  00000+0 -67972-5 0  9998
2 60591  53.1602  48.8399 0001279  94.3289 265.7858 15.30191374108346
STARLINK-31497          
1 60592U 24150K   26201.84632753  .00000078  00000+0  13453-4 0  9997
2 60592  53.1610  46.0176 0001230  77.7614 282.3526 15.34393114108463
STARLINK-32161          
1 60593U 24150L   26201.84422110  .00000589  00000+0  28580-4 0  9996
2 60593  53.1602  46.0058 0001188  86.8108 273.3031 15.34395460108383
STARLINK-32210          
1 60594U 24150M   26201.80433870  .00000310  00000+0  20306-4 0  9998
2 60594  53.1600  46.4626 0000980  99.3863 260.7251 15.34391444108453
STARLINK-32202          
1 60595U 24150N   26201.78712598  .00001201  00000+0  50460-4 0  9997
2 60595  53.1597  48.4884 0001255  80.7789 279.3354 15.31707097108423
STARLINK-31930          
1 60596U 24150P   26201.79802360  .00000808  00000+0  35043-4 0  9998
2 60596  53.1613  46.4264 0001249  87.6350 272.4796 15.34396576108373
STARLINK-32162          
1 60597U 24150Q   26201.84719855  .00001611  00000+0  66500-4 0  9996
2 60597  53.1611  48.8590 0001353  86.7096 273.4059 15.30200124108421
STARLINK-32208          
1 60598U 24150R   26201.85036782 -.00001085  00000+0 -24528-4 0  9990
2 60598  53.1603  48.8785 0001350  85.6701 274.4454 15.30188566108422
STARLINK-32165          
1 60599U 24150S   26201.84087119  .00001009  00000+0  46186-4 0  9998
2 60599  53.1609  48.8196 0001420  90.2178 269.8985 15.30195761108425
STARLINK-31923          
1 60600U 24150T   26201.89562689  .00000288  00000+0  21862-4 0  9998
2 60600  53.1606  48.4482 0001318  96.9047 263.2104 15.30198563108438
STARLINK-31988          
1 60601U 24150U   26201.86105194  .00000994  00000+0  40539-4 0  9996
2 60601  53.1596  46.1095 0001122  76.1289 283.9838 15.34402882108386
STARLINK-31983          
1 60602U 24150V   26201.90304758 -.00000509  00000+0 -39173-5 0  9996
2 60602  53.1611  45.6579 0001391  99.1013 261.0147 15.34389871108397
STARLINK-31874          
1 60603U 24150W   26201.85263856  .00005635  00000+0  17777-3 0  9991
2 60603  53.1588  46.0563 0001092  82.2709 277.8418 15.34402064108466
STARLINK-32039          
1 60604U 24150X   26201.87305730  .00002750  00000+0  10496-3 0  9998
2 60604  53.1601  51.1528 0001332  96.0577 264.0576 15.30199197108395
ZHONGXING-4A            
1 60606U 24151A   26201.96506128 -.00000361  00000+0  00000+0 0  9998
2 60606   1.2285 270.4247 0000038   2.2038 131.7456  1.00272860  7099
STARLINK-11247 [DTC]    
1 60720U 24152A   26201.96796057  .00000485  00000+0  88687-5 0  9997
2 60720  53.1595 179.5620 0001477  91.8732 268.2455 15.69700280109767
STARLINK-11259 [DTC]    
1 60721U 24152B   26201.32635652  .00000964  00000+0  12814-4 0  9991
2 60721  53.1599 182.6648 0001176  90.2166 269.8987 15.69711912109667
STARLINK-11188 [DTC]    
1 60722U 24152C   26201.95813923  .00000617  00000+0  99535-5 0  9991
2 60722  53.1586 179.4927 0001170  96.5911 263.5240 15.69713662109880
STARLINK-11272 [DTC]    
1 60723U 24152D   26201.37530593  .00001641  00000+0  18398-4 0  9992
2 60723  53.1594 182.2532 0001023  76.4151 283.6981 15.69710016109676
STARLINK-11261 [DTC]    
1 60724U 24152E   26201.25287723  .00000101  00000+0  56914-5 0  9991
2 60724  53.1590 182.9154 0001149  84.8894 275.2255 15.69708827109652
STARLINK-11263 [DTC]    
1 60725U 24152F   26201.37041959  .00001819  00000+0  19881-4 0  9992
2 60725  53.1590 182.2181 0001544  99.4055 260.7138 15.69700259109678
STARLINK-11235 [DTC]    
1 60726U 24152G   26201.36549562  .00000324  00000+0  75356-5 0  9995
2 60726  53.1599 182.1861 0001271  88.8641 271.2522 15.69713922109802
STARLINK-11080 [DTC]    
1 60727U 24152H   26201.93361384  .00000324  00000+0  75305-5 0  9997
2 60727  53.1596 179.3307 0001040  83.2083 276.9054 15.69711174109894
STARLINK-11249 [DTC]    
1 60728U 24152J   26201.86504184  .00000061  00000+0  53592-5 0  9999
2 60728  53.1592 179.6098 0001046  94.5301 265.5836 15.69706732109756
STARLINK-11146 [DTC]    
1 60729U 24152K   26201.66912692  .00001178  00000+0  14587-4 0  9995
2 60729  53.1597 180.5085 0000968  94.8370 265.2759 15.69701523109855
STARLINK-11255 [DTC]    
1 60730U 24152L   26201.34587627  .00000243  00000+0  68637-5 0  9996
2 60730  53.1600 182.0584 0001136  72.2133 287.9009 15.69708844109681
